NORAD_CAT_ID,OBJECT_NAME,OBJECT_TYPE,EPOCH,MEAN_MOTION,ECCENTRICITY,INCLINATION,RA_OF_ASC_NODE,ARG_OF_PERICENTER,MEAN_ANOMALY,BSTAR,MEAN_MOTION_DOT,MEAN_MOTION_DDOT,TLE_LINE0,TLE_LINE1,TLE_LINE2,SEMIMAJOR_AXIS,PERIOD,APOGEE,PERIGEE,DECAYED
53184.0,STARLINK-4257,PAYLOAD,2024-04-30 18:30:11,15.08848134,0.0001217,53.2173,286.9997,80.5071,279.6059,0.00010673,1.412e-05,0.0,0 STARLINK-4257,1 53184U 22083BE  24121.77096788  .00001412  00000-0  10673-3 0  9996,2 53184  53.2173 286.9997 0001217  80.5071 279.6059 15.08848134 99587,6917.856,95.437,540.562,538.879,0.0
53184.0,STARLINK-4257,PAYLOAD,2024-05-01 04:02:30,15.08851192,0.0001283,53.2181,285.2152,79.0494,281.0643,0.00017235,2.457e-05,0.0,0 STARLINK-4257,1 53184U 22083BE  24122.16840532  .00002457  00000-0  17235-3 0  9995,2 53184  53.2181 285.2152 0001283  79.0494 281.0643 15.08851192 99647,6917.846,95.437,540.599,538.824,0.0
53184.0,STARLINK-4257,PAYLOAD,2024-05-01 19:56:21,15.0885103,0.0001322,53.218,282.2418,89.6488,270.4656,0.00010931,1.453e-05,0.0,0 STARLINK-4257,1 53184U 22083BE  24122.83080251  .00001453  00000-0  10931-3 0  9994,2 53184  53.2180 282.2418 0001322  89.6488 270.4656 15.08851030100372,6917.847,95.437,540.626,538.797,0.0
53184.0,STARLINK-4257,PAYLOAD,2024-05-02 03:53:17,15.08843239,0.0001241,53.2179,280.7567,78.5797,281.5334,-4.0537e-05,-9.33e-06,0.0,0 STARLINK-4257,1 53184U 22083BE  24123.16200545 -.00000933  00000-0 -40537-4 0  9991,2 53184  53.2179 280.7567 0001241  78.5797 281.5334 15.08843239100422,6917.87,95.437,540.594,538.877,0.0
53184.0,STARLINK-4257,PAYLOAD,2024-05-02 10:14:50,15.08834491,0.0001418,53.2169,279.5703,75.2399,284.875,-1.5066e-05,-5.28e-06,0.0,0 STARLINK-4257,1 53184U 22083BE  24123.42697137 -.00000528  00000-0 -15066-4 0  9996,2 53184  53.2169 279.5703 0001418  75.2399 284.8750 15.08834491100469,6917.897,95.438,540.743,538.781,0.0
53184.0,STARLINK-4257,PAYLOAD,2024-05-02 15:00:59,15.08849121,0.0001504,53.219,278.6775,79.7465,280.3697,-0.0002752,-4.666e-05,0.0,0 STARLINK-4257,1 53184U 22083BE  24123.62569105 -.00004666  00000-0 -27520-3 0  9995,2 53184  53.2190 278.6775 0001504  79.7465 280.3697 15.08849121 99869,6917.853,95.437,540.758,538.677,0.0
53184.0,STARLINK-4257,PAYLOAD,2024-05-03 03:44:04,15.08847425,0.0001321,53.2175,276.295,89.7087,270.4057,3.948e-05,3.41e-06,0.0,0 STARLINK-4257,1 53184U 22083BE  24124.15560455  .00000341  00000-0  39480-4 0  9996,2 53184  53.2175 276.2950 0001321  89.7087 270.4057 15.08847425100575,6917.858,95.437,540.637,538.809,0.0
53184.0,STARLINK-4257,PAYLOAD,2024-05-03 13:16:26,15.08738544,0.000111,53.2157,274.5118,132.1272,227.9815,0.0019958,0.00031529,0.0,0 STARLINK-4257,1 53184U 22083BE  24124.55308198  .00031529  00000-0  19958-2 0  9992,2 53184  53.2157 274.5118 0001110 132.1272 227.9815 15.08738544100634,6918.191,95.444,540.823,539.288,0.0
53184.0,STARLINK-4257,PAYLOAD,2024-05-03 14:51:45,15.08850496,0.0001406,53.2157,274.2142,88.3707,271.7446,0.00025572,3.785e-05,0.0,0 STARLINK-4257,1 53184U 22083BE  24124.61927699  .00003785  00000-0  25572-3 0  9995,2 53184  53.2157 274.2142 0001406  88.3707 271.7446 15.08850496100011,6917.848,95.437,540.686,538.741,0.0
53184.0,STARLINK-4257,PAYLOAD,2024-05-03 16:27:08,15.08851876,0.000141,53.2173,273.9168,92.9263,267.1891,0.00025846,3.829e-05,0.0,0 STARLINK-4257,1 53184U 22083BE  24124.68551429  .00003829  00000-0  25846-3 0  9999,2 53184  53.2173 273.9168 0001410  92.9263 267.1891 15.08851876100652,6917.844,95.437,540.685,538.734,0.0
53184.0,STARLINK-4257,PAYLOAD,2024-05-03 21:13:17,15.0886286,0.0001376,53.2173,273.0248,93.1327,266.9822,0.00049127,7.544e-05,0.0,0 STARLINK-4257,1 53184U 22083BE  24124.88423325  .00007544  00000-0  49127-3 0  9990,2 53184  53.2173 273.0248 0001376  93.1327 266.9822 15.08862860100057,6917.811,95.436,540.627,538.724,0.0
53184.0,STARLINK-4257,PAYLOAD,2024-05-04 13:07:10,15.08831768,0.0001154,53.2159,270.0514,87.1054,273.007,-4.083e-05,-9.37e-06,0.0,0 STARLINK-4257,1 53184U 22083BE  24125.54665034 -.00000937  00000-0 -40830-4 0  9993,2 53184  53.2159 270.0514 0001154  87.1054 273.0070 15.08831768100785,6917.906,95.438,540.569,538.972,0.0
53184.0,STARLINK-4257,PAYLOAD,2024-05-05 12:57:57,15.08843907,0.0001186,53.2167,265.5907,99.9234,260.1892,0.00064514,9.995e-05,0.0,0 STARLINK-4257,1 53184U 22083BE  24126.54025148  .00009995  00000-0  64514-3 0  9995,2 53184  53.2167 265.5907 0001186  99.9234 260.1892 15.08843907100939,6917.868,95.437,540.554,538.913,0.0
53184.0,STARLINK-4257,PAYLOAD,2024-05-05 14:33:20,15.08846687,0.0001172,53.2167,265.2933,100.0732,260.0393,0.00076576,0.00011922,0.0,0 STARLINK-4257,1 53184U 22083BE  24126.60649133  .00011922  00000-0  76576-3 0  9992,2 53184  53.2167 265.2933 0001172 100.0732 260.0393 15.08846687100312,6917.86,95.437,540.536,538.914,0.0
53184.0,STARLINK-4257,PAYLOAD,2024-05-05 16:08:43,15.08848741,0.0001204,53.2169,264.9957,99.3707,260.7422,0.00091453,0.000143,0.0,0 STARLINK-4257,1 53184U 22083BE  24126.67273131  .00014300  00000-0  91453-3 0  9994,2 53184  53.2169 264.9957 0001204  99.3707 260.7422 15.08848741100328,6917.854,95.437,540.552,538.886,0.0
53184.0,STARLINK-4257,PAYLOAD,2024-05-06 12:48:44,15.08854428,0.0001399,53.2188,261.1336,102.4037,257.7112,0.00051377,7.901e-05,0.0,0 STARLINK-4257,1 53184U 22083BE  24127.53384769  .00007901  00000-0  51377-3 0  9990,2 53184  53.2188 261.1336 0001399 102.4037 257.7112 15.08854428101081,6917.836,95.437,540.669,538.733,0.0
53184.0,STARLINK-4257,PAYLOAD,2024-05-06 14:24:07,15.08855378,0.0001424,53.2182,260.8361,98.4671,261.6482,0.00050584,7.775e-05,0.0,0 STARLINK-4257,1 53184U 22083BE  24127.60008708  .00007775  00000-0  50584-3 0  9992,2 53184  53.2182 260.8361 0001424  98.4671 261.6482 15.08855378100466,6917.833,95.437,540.683,538.713,0.0
53184.0,STARLINK-4257,PAYLOAD,2024-05-06 15:59:30,15.08858857,0.0001437,53.2185,260.5394,101.8254,258.2899,0.00054356,8.378e-05,0.0,0 STARLINK-4257,1 53184U 22083BE  24127.66632548  .00008378  00000-0  54356-3 0  9994,2 53184  53.2185 260.5394 0001437 101.8254 258.2899 15.08858857100472,6917.823,95.436,540.682,538.694,0.0
53184.0,STARLINK-4257,PAYLOAD,2024-05-07 01:31:49,15.0885089,0.0001143,53.2175,258.752,89.9283,270.184,0.00026276,3.898e-05,0.0,0 STARLINK-4257,1 53184U 22083BE  24128.06376497  .00003898  00000-0  26276-3 0  9999,2 53184  53.2175 258.7520 0001143  89.9283 270.1840 15.08850890101168,6917.847,95.437,540.503,538.921,0.0
53184.0,STARLINK-4257,PAYLOAD,2024-05-07 12:39:31,15.08836999,0.0001348,53.2187,256.6729,98.8541,261.2604,-0.00011362,-2.096e-05,0.0,0 STARLINK-4257,1 53184U 22083BE  24128.52744869 -.00002096  00000-0 -11362-3 0  9993,2 53184  53.2187 256.6729 0001348  98.8541 261.2604 15.08836999101233,6917.89,95.438,540.687,538.822,0.0
53184.0,STARLINK-4257,PAYLOAD,2024-05-07 14:14:54,15.08837399,0.0001372,53.2187,256.3752,97.1623,262.9525,-7.7367e-05,-1.519e-05,0.0,0 STARLINK-4257,1 53184U 22083BE  24128.59368945 -.00001519  00000-0 -77367-4 0  9994,2 53184  53.2187 256.3752 0001372  97.1623 262.9525 15.08837399100612,6917.888,95.438,540.702,538.804,0.0
53184.0,STARLINK-4257,PAYLOAD,2024-05-07 15:50:17,15.08843359,0.0001289,53.218,256.0764,94.4309,265.6831,4.8297e-05,4.81e-06,0.0,0 STARLINK-4257,1 53184U 22083BE  24128.65992816  .00000481  00000-0  48297-4 0  9996,2 53184  53.2180 256.0764 0001289  94.4309 265.6831 15.08843359100627,6917.87,95.437,540.627,538.843,0.0
53184.0,STARLINK-4257,PAYLOAD,2024-05-08 14:05:41,15.08842383,0.0001193,53.2166,251.9137,92.2634,267.8495,1.7088e-05,-1.6e-07,0.0,0 STARLINK-4257,1 53184U 22083BE  24129.58728932 -.00000016  00000-0  17088-4 0  9994,2 53184  53.2166 251.9137 0001193  92.2634 267.8495 15.08842383100761,6917.873,95.437,540.563,538.913,0.0
53184.0,STARLINK-4257,PAYLOAD,2024-05-08 15:41:04,15.08845083,0.0001257,53.2167,251.6159,89.2385,270.8751,6.5066e-05,7.48e-06,0.0,0 STARLINK-4257,1 53184U 22083BE  24129.65352827  .00000748  00000-0  65066-4 0  9998,2 53184  53.2167 251.6159 0001257  89.2385 270.8751 15.08845083101404,6917.865,95.437,540.599,538.86,0.0
53184.0,STARLINK-4257,PAYLOAD,2024-05-09 12:21:07,15.08816399,9.88e-05,53.2163,247.7506,83.1621,276.9483,-0.00011453,-2.109e-05,0.0,0 STARLINK-4257,1 53184U 22083BE  24130.51466820 -.00002109  00000-0 -11453-3 0  9999,2 53184  53.2163 247.7506 0000988  83.1621 276.9483 15.08816399101539,6917.953,95.439,540.501,539.134,0.0
53184.0,STARLINK-4257,PAYLOAD,2024-05-09 13:56:30,15.0881835,8.62e-05,53.2158,247.4513,81.0894,279.0196,-0.00016816,-2.961e-05,0.0,0 STARLINK-4257,1 53184U 22083BE  24130.58090724 -.00002961  00000-0 -16816-3 0  9996,2 53184  53.2158 247.4513 0000862  81.0894 279.0196 15.08818350100913,6917.947,95.439,540.408,539.215,0.0
53184.0,STARLINK-4257,PAYLOAD,2024-05-09 15:31:53,15.08819394,0.0001004,53.2174,247.1544,74.5967,285.5136,-0.00014907,-2.658e-05,0.0,0 STARLINK-4257,1 53184U 22083BE  24130.64714823 -.00002658  00000-0 -14907-3 0  9998,2 53184  53.2174 247.1544 0001004  74.5967 285.5136 15.08819394100925,6917.943,95.439,540.503,539.114,0.0
53184.0,STARLINK-4257,PAYLOAD,2024-05-10 13:47:17,15.08842968,0.000103,53.2164,242.9933,68.7517,291.3585,0.00028477,4.248e-05,0.0,0 STARLINK-4257,1 53184U 22083BE  24131.57450408  .00004248  00000-0  28477-3 0  9999,2 53184  53.2164 242.9933 0001030  68.7517 291.3585 15.08842968101695,6917.871,95.437,540.449,539.024,0.0
53184.0,STARLINK-4257,PAYLOAD,2024-05-11 16:48:49,15.08861584,0.0001164,53.2175,237.9363,87.9839,272.1286,0.00033401,5.035e-05,0.0,0 STARLINK-4257,1 53184U 22083BE  24132.70057147  .00005035  00000-0  33401-3 0  9996,2 53184  53.2175 237.9363 0001164  87.9839 272.1286 15.08861584101865,6917.814,95.436,540.485,538.874,0.0
53184.0,STARLINK-4257,PAYLOAD,2024-05-12 13:28:54,15.08793625,0.0001103,53.216,234.0718,79.9672,280.1445,-0.00049945,-8.217e-05,0.0,0 STARLINK-4257,1 53184U 22083BE  24133.56173940 -.00008217  00000-0 -49945-3 0  9998,2 53184  53.2160 234.0718 0001103  79.9672 280.1445 15.08793625101990,6918.022,95.44,540.65,539.124,0.0
